[{"OBJECT_NAME":"DIRECTV 11","OBJECT_ID":"2008-013A","EPOCH":"2026-04-25T19:58:57.143712","MEAN_MOTION":1.00271505,"ECCENTRICITY":3.05e-5,"INCLINATION":0.0118,"RA_OF_ASC_NODE":100.8021,"ARG_OF_PERICENTER":260.6323,"MEAN_ANOMALY":52.9543,"EPHEMERIS_TYPE":0,"CLASSIFICATION_TYPE":"U","NORAD_CAT_ID":32729,"ELEMENT_SET_NO":999,"REV_AT_EPOCH":4506,"BSTAR":0,"MEAN_MOTION_DOT":-1.39e-6,"MEAN_MOTION_DDOT":0},{"OBJECT_NAME":"ICO G1","OBJECT_ID":"2008-016A","EPOCH":"2026-04-25T20:00:49.463712","MEAN_MOTION":1.00272738,"ECCENTRICITY":0.0002446,"INCLINATION":5.5181,"RA_OF_ASC_NODE":36.2394,"ARG_OF_PERICENTER":345.8847,"MEAN_ANOMALY":39.0799,"EPHEMERIS_TYPE":0,"CLASSIFICATION_TYPE":"U","NORAD_CAT_ID":32763,"ELEMENT_SET_NO":999,"REV_AT_EPOCH":6602,"BSTAR":0,"MEAN_MOTION_DOT":-1.83e-6,"MEAN_MOTION_DDOT":0},{"OBJECT_NAME":"VINASAT-1","OBJECT_ID":"2008-018A","EPOCH":"2026-04-25T19:22:15.663072","MEAN_MOTION":1.00271903,"ECCENTRICITY":0.0002017,"INCLINATION":0.0095,"RA_OF_ASC_NODE":291.9976,"ARG_OF_PERICENTER":128.1942,"MEAN_ANOMALY":216.1421,"EPHEMERIS_TYPE":0,"CLASSIFICATION_TYPE":"U","NORAD_CAT_ID":32767,"ELEMENT_SET_NO":999,"REV_AT_EPOCH":6606,"BSTAR":0,"MEAN_MOTION_DOT":-3.42e-6,"MEAN_MOTION_DDOT":0},{"OBJECT_NAME":"STAR ONE C2","OBJECT_ID":"2008-018B","EPOCH":"2026-04-25T20:57:38.714400","MEAN_MOTION":1.00273278,"ECCENTRICITY":0.0002749,"INCLINATION":1.1091,"RA_OF_ASC_NODE":82.8613,"ARG_OF_PERICENTER":312.9148,"MEAN_ANOMALY":67.5212,"EPHEMERIS_TYPE":0,"CLASSIFICATION_TYPE":"U","NORAD_CAT_ID":32768,"ELEMENT_SET_NO":999,"REV_AT_EPOCH":6613,"BSTAR":0,"MEAN_MOTION_DOT":-2.89e-6,"MEAN_MOTION_DDOT":0},{"OBJECT_NAME":"AMOS-3","OBJECT_ID":"2008-022A","EPOCH":"2026-04-25T20:28:01.855200","MEAN_MOTION":1.00453215,"ECCENTRICITY":2.0e-5,"INCLINATION":0.3216,"RA_OF_ASC_NODE":86.6763,"ARG_OF_PERICENTER":145.3005,"MEAN_ANOMALY":291.5896,"EPHEMERIS_TYPE":0,"CLASSIFICATION_TYPE":"U","NORAD_CAT_ID":32794,"ELEMENT_SET_NO":999,"REV_AT_EPOCH":8181,"BSTAR":0,"MEAN_MOTION_DOT":3.5e-7,"MEAN_MOTION_DDOT":0},{"OBJECT_NAME":"GALAXY 18 (G-18)","OBJECT_ID":"2008-024A","EPOCH":"2026-04-25T16:26:52.785024","MEAN_MOTION":1.00271532,"ECCENTRICITY":0.0003171,"INCLINATION":0.0197,"RA_OF_ASC_NODE":262.5775,"ARG_OF_PERICENTER":136.3024,"MEAN_ANOMALY":298.5349,"EPHEMERIS_TYPE":0,"CLASSIFICATION_TYPE":"U","NORAD_CAT_ID":32951,"ELEMENT_SET_NO":999,"REV_AT_EPOCH":4532,"BSTAR":0,"MEAN_MOTION_DOT":1.1e-7,"MEAN_MOTION_DDOT":0},{"OBJECT_NAME":"ZHONGXING-9","OBJECT_ID":"2008-028A","EPOCH":"2026-04-24T19:13:31.254816","MEAN_MOTION":1.0026895,"ECCENTRICITY":0.00064537,"INCLINATION":0.6331,"RA_OF_ASC_NODE":85.8918,"ARG_OF_PERICENTER":281.9632,"MEAN_ANOMALY":225.72,"EPHEMERIS_TYPE":0,"CLASSIFICATION_TYPE":"U","NORAD_CAT_ID":33051,"ELEMENT_SET_NO":999,"REV_AT_EPOCH":6550,"BSTAR":0,"MEAN_MOTION_DOT":-2.62e-6,"MEAN_MOTION_DDOT":0},{"OBJECT_NAME":"SKYNET 5C","OBJECT_ID":"2008-030A","EPOCH":"2026-04-25T20:22:17.406048","MEAN_MOTION":1.00271568,"ECCENTRICITY":0.0003736,"INCLINATION":3.6572,"RA_OF_ASC_NODE":77.6375,"ARG_OF_PERICENTER":317.5679,"MEAN_ANOMALY":106.437,"EPHEMERIS_TYPE":0,"CLASSIFICATION_TYPE":"U","NORAD_CAT_ID":33055,"ELEMENT_SET_NO":999,"REV_AT_EPOCH":6543,"BSTAR":0,"MEAN_MOTION_DOT":-1.5e-6,"MEAN_MOTION_DDOT":0},{"OBJECT_NAME":"TURKSAT 3A","OBJECT_ID":"2008-030B","EPOCH":"2026-04-25T18:56:40.615008","MEAN_MOTION":1.00273852,"ECCENTRICITY":0.0005035,"INCLINATION":0.0717,"RA_OF_ASC_NODE":77.8393,"ARG_OF_PERICENTER":317.5436,"MEAN_ANOMALY":144.5675,"EPHEMERIS_TYPE":0,"CLASSIFICATION_TYPE":"U","NORAD_CAT_ID":33056,"ELEMENT_SET_NO":999,"REV_AT_EPOCH":5183,"BSTAR":0,"MEAN_MOTION_DOT":1.32e-6,"MEAN_MOTION_DDOT":0},{"OBJECT_NAME":"INTELSAT 25 (IS-25)","OBJECT_ID":"2008-034A","EPOCH":"2026-04-23T01:58:38.717184","MEAN_MOTION":0.99965107,"ECCENTRICITY":0.00021655,"INCLINATION":2.567,"RA_OF_ASC_NODE":80.9425,"ARG_OF_PERICENTER":274.6153,"MEAN_ANOMALY":207.906,"EPHEMERIS_TYPE":0,"CLASSIFICATION_TYPE":"U","NORAD_CAT_ID":33153,"ELEMENT_SET_NO":999,"REV_AT_EPOCH":6514,"BSTAR":0,"MEAN_MOTION_DOT":-2.78e-6,"MEAN_MOTION_DDOT":0},{"OBJECT_NAME":"ECHOSTAR 11","OBJECT_ID":"2008-035A","EPOCH":"2026-04-25T15:08:38.589216","MEAN_MOTION":1.00270994,"ECCENTRICITY":0.000245,"INCLINATION":0.8706,"RA_OF_ASC_NODE":84.6796,"ARG_OF_PERICENTER":292.1033,"MEAN_ANOMALY":314.2265,"EPHEMERIS_TYPE":0,"CLASSIFICATION_TYPE":"U","NORAD_CAT_ID":33207,"ELEMENT_SET_NO":999,"REV_AT_EPOCH":5068,"BSTAR":0,"MEAN_MOTION_DOT":-7.1e-7,"MEAN_MOTION_DDOT":0},{"OBJECT_NAME":"SUPERBIRD-C2","OBJECT_ID":"2008-038A","EPOCH":"2026-04-25T19:23:23.055072","MEAN_MOTION":1.00272699,"ECCENTRICITY":0.0004377,"INCLINATION":2.2278,"RA_OF_ASC_NODE":81.8806,"ARG_OF_PERICENTER":1.9264,"MEAN_ANOMALY":196.8727,"EPHEMERIS_TYPE":0,"CLASSIFICATION_TYPE":"U","NORAD_CAT_ID":33274,"ELEMENT_SET_NO":999,"REV_AT_EPOCH":10520,"BSTAR":0,"MEAN_MOTION_DOT":-3.18e-6,"MEAN_MOTION_DDOT":0},{"OBJECT_NAME":"INMARSAT 4-F3","OBJECT_ID":"2008-039A","EPOCH":"2026-04-25T19:59:19.607712","MEAN_MOTION":1.00271221,"ECCENTRICITY":0.0003079,"INCLINATION":4.2499,"RA_OF_ASC_NODE":31.4151,"ARG_OF_PERICENTER":12.8169,"MEAN_ANOMALY":11.4454,"EPHEMERIS_TYPE":0,"CLASSIFICATION_TYPE":"U","NORAD_CAT_ID":33278,"ELEMENT_SET_NO":999,"REV_AT_EPOCH":4602,"BSTAR":0,"MEAN_MOTION_DOT":-1.52e-6,"MEAN_MOTION_DDOT":0},{"OBJECT_NAME":"NIMIQ 4","OBJECT_ID":"2008-044A","EPOCH":"2026-04-25T20:49:38.771040","MEAN_MOTION":1.0027156,"ECCENTRICITY":0.0002226,"INCLINATION":0.0073,"RA_OF_ASC_NODE":279.9811,"ARG_OF_PERICENTER":109.7942,"MEAN_ANOMALY":54.5337,"EPHEMERIS_TYPE":0,"CLASSIFICATION_TYPE":"U","NORAD_CAT_ID":33373,"ELEMENT_SET_NO":999,"REV_AT_EPOCH":6445,"BSTAR":0,"MEAN_MOTION_DOT":-2.34e-6,"MEAN_MOTION_DDOT":0},{"OBJECT_NAME":"GALAXY 19 (G-19)","OBJECT_ID":"2008-045A","EPOCH":"2026-04-25T19:59:34.585152","MEAN_MOTION":1.00271954,"ECCENTRICITY":0.0003257,"INCLINATION":0.0157,"RA_OF_ASC_NODE":249.3206,"ARG_OF_PERICENTER":160.4396,"MEAN_ANOMALY":6.9681,"EPHEMERIS_TYPE":0,"CLASSIFICATION_TYPE":"U","NORAD_CAT_ID":33376,"ELEMENT_SET_NO":999,"REV_AT_EPOCH":6437,"BSTAR":0,"MEAN_MOTION_DOT":-1.53e-6,"MEAN_MOTION_DDOT":0},{"OBJECT_NAME":"ASTRA 1M","OBJECT_ID":"2008-057A","EPOCH":"2026-04-25T18:50:11.236992","MEAN_MOTION":1.00273939,"ECCENTRICITY":0.000375,"INCLINATION":0.1624,"RA_OF_ASC_NODE":79.3258,"ARG_OF_PERICENTER":1.417,"MEAN_ANOMALY":74.9994,"EPHEMERIS_TYPE":0,"CLASSIFICATION_TYPE":"U","NORAD_CAT_ID":33436,"ELEMENT_SET_NO":999,"REV_AT_EPOCH":4521,"BSTAR":0,"MEAN_MOTION_DOT":1.07e-6,"MEAN_MOTION_DDOT":0},{"OBJECT_NAME":"EUTELSAT HOTBIRD 13C","OBJECT_ID":"2008-065A","EPOCH":"2026-04-25T20:12:55.804320","MEAN_MOTION":1.00270284,"ECCENTRICITY":0.0004168,"INCLINATION":2.8179,"RA_OF_ASC_NODE":79.7801,"ARG_OF_PERICENTER":319.6031,"MEAN_ANOMALY":67.4224,"EPHEMERIS_TYPE":0,"CLASSIFICATION_TYPE":"U","NORAD_CAT_ID":33459,"ELEMENT_SET_NO":999,"REV_AT_EPOCH":4682,"BSTAR":0,"MEAN_MOTION_DOT":-2.94e-6,"MEAN_MOTION_DDOT":0}]
